SAUDISAT 1C (SO-50)     
1 27607U 02058C   25104.18948734  .00003425  00000+0  44565-3 0  9993
2 27607  64.5566  14.5753 0049628 347.4885  12.4984 14.81415019201082
SAUDISAT 2              
1 28371U 04025F   25103.66135518  .00000825  00000+0  19683-3 0  9992
2 28371  98.5230  88.3630 0024969 173.3084 186.8451 14.56257698103228
SAUDISAT 3              
1 31118U 07012B   25103.83114207  .00000859  00000+0  14810-3 0  9999
2 31118  98.0944  50.5675 0015420 148.8971 211.3151 14.70980504964627
PISAT                   
1 41784U 16059B   25103.91205291  .00002279  00000+0  40509-3 0  9995
2 41784  97.8188 118.2974 0030888 134.1623 226.2130 14.67754174456744
FLYING LAPTOP           
1 42831U 17042G   25103.89775631  .00004827  00000+0  40825-3 0  9991
2 42831  97.4030 274.3534 0013298 136.1054 224.1229 14.98419697422114
SALSAT                  
1 46495U 20068K   25103.88927175  .00013767  00000+0  61033-3 0  9991
2 46495  97.8571  79.3539 0011861  10.2866 349.8609 15.21672448249906
